CENTISPACE-1 OBJECT E   
1 68354U 26060E   26094.17215453  .00000150  00000+0  52845-4 0  9992
2 68354  54.9791 337.6409 0013190 330.9696  29.0569 14.75212267  1857
CENTISPACE-1 OBJECT F   
1 68355U 26060F   26094.30775672  .00000128  00000+0  49767-4 0  9996
2 68355  54.9756 337.0824 0013390 331.1181  28.9076 14.75070773  1875
CENTISPACE-1 OBJECT G   
1 68356U 26060G   26094.30690800  .00000131  00000+0  49987-4 0  9994
2 68356  54.9866 337.0894 0013458 332.6730  27.3560 14.75219640  1875
CENTISPACE-1 OBJECT H   
1 68357U 26060H   26092.40903992  .00000123  00000+0  48805-4 0  9992
2 68357  54.9838 344.8287 0013821 328.1926  31.8237 14.75277593  1599
CENTISPACE-1 OBJECT J   
1 68358U 26060J   26094.30607439  .00000132  00000+0  50085-4 0  9994
2 68358  54.9834 337.0781 0014514 331.6144  28.4064 14.75288053  1874
CENTISPACE-1 OBJECT K   
1 68359U 26060K   26094.03420010  .00000155  00000+0  53351-4 0  9997
2 68359  54.9798 338.1795 0015602 332.5681  27.4493 14.75504026  1838
RASSVET-3 1             
1 68360U 26061A   26094.24567440  .00152397  70411-5  50065-3 0  9995
2 68360  82.2952  95.6460 0024998  32.1576 328.1213 15.89876049  1838
RASSVET-3 2             
1 68361U 26061B   26094.24769499  .00083743  12902-5  28504-3 0  9996
2 68361  82.2967  95.6501 0026357  31.6778 328.6072 15.89076812  1838
RASSVET-3 3             
1 68362U 26061C   26094.24753987  .00082450  12161-5  28070-3 0  9991
2 68362  82.2966  95.6495 0026170  31.5508 328.7325 15.89080328  1832
RASSVET-3 4             
1 68363U 26061D   26094.24738709  .00082725  12321-5  28138-3 0  9995
2 68363  82.2967  95.6496 0026213  31.4198 328.8633 15.89096130  1838
RASSVET-3 5             
1 68364U 26061E   26094.24725464  .00082221  12039-5  27939-3 0  9995
2 68364  82.2966  95.6490 0026171  31.4640 328.8190 15.89117169  1831
RASSVET-3 6             
1 68365U 26061F   26094.24687721  .00082343  12135-5  27834-3 0  9995
2 68365  82.2967  95.6486 0026008  31.6628 328.6201 15.89228587  1833
