CCSDS_OMM_VERS = 2.0
CREATION_DATE  = 
ORIGINATOR     = 

OBJECT_NAME    = CENTISPACE-1 OBJECT E
OBJECT_ID      = 2026-060E
CENTER_NAME    = EARTH
REF_FRAME      = TEME
TIME_SYSTEM    = UTC
MEAN_ELEMENT_THEORY = SGP/SGP4

EPOCH          = 2026-04-04T04:07:54.151392
MEAN_MOTION    = 14.75212267
ECCENTRICITY   = .00131905
INCLINATION    = 54.9791
RA_OF_ASC_NODE = 337.6409
ARG_OF_PERICENTER = 330.9696
MEAN_ANOMALY   = 29.0569

EPHEMERIS_TYPE = 0
CLASSIFICATION_TYPE = U
NORAD_CAT_ID   = 68354
ELEMENT_SET_NO = 999
REV_AT_EPOCH   = 185
BSTAR          = .52844661E-4
MEAN_MOTION_DOT = .15E-5
MEAN_MOTION_DDOT = 0

CCSDS_OMM_VERS = 2.0
CREATION_DATE  = 
ORIGINATOR     = 

OBJECT_NAME    = CENTISPACE-1 OBJECT F
OBJECT_ID      = 2026-060F
CENTER_NAME    = EARTH
REF_FRAME      = TEME
TIME_SYSTEM    = UTC
MEAN_ELEMENT_THEORY = SGP/SGP4

EPOCH          = 2026-04-04T07:23:10.180608
MEAN_MOTION    = 14.75070773
ECCENTRICITY   = .00133908
INCLINATION    = 54.9756
RA_OF_ASC_NODE = 337.0824
ARG_OF_PERICENTER = 331.1181
MEAN_ANOMALY   = 28.9076

EPHEMERIS_TYPE = 0
CLASSIFICATION_TYPE = U
NORAD_CAT_ID   = 68355
ELEMENT_SET_NO = 999
REV_AT_EPOCH   = 187
BSTAR          = .49767441E-4
MEAN_MOTION_DOT = .128E-5
MEAN_MOTION_DDOT = 0

CCSDS_OMM_VERS = 2.0
CREATION_DATE  = 
ORIGINATOR     = 

OBJECT_NAME    = CENTISPACE-1 OBJECT G
OBJECT_ID      = 2026-060G
CENTER_NAME    = EARTH
REF_FRAME      = TEME
TIME_SYSTEM    = UTC
MEAN_ELEMENT_THEORY = SGP/SGP4

EPOCH          = 2026-04-04T07:21:56.851200
MEAN_MOTION    = 14.75219640
ECCENTRICITY   = .00134587
INCLINATION    = 54.9866
RA_OF_ASC_NODE = 337.0894
ARG_OF_PERICENTER = 332.6730
MEAN_ANOMALY   = 27.3560

EPHEMERIS_TYPE = 0
CLASSIFICATION_TYPE = U
NORAD_CAT_ID   = 68356
ELEMENT_SET_NO = 999
REV_AT_EPOCH   = 187
BSTAR          = .49987437E-4
MEAN_MOTION_DOT = .131E-5
MEAN_MOTION_DDOT = 0

CCSDS_OMM_VERS = 2.0
CREATION_DATE  = 
ORIGINATOR     = 

OBJECT_NAME    = CENTISPACE-1 OBJECT H
OBJECT_ID      = 2026-060H
CENTER_NAME    = EARTH
REF_FRAME      = TEME
TIME_SYSTEM    = UTC
MEAN_ELEMENT_THEORY = SGP/SGP4

EPOCH          = 2026-04-02T09:49:01.049088
MEAN_MOTION    = 14.75277593
ECCENTRICITY   = .00138214
INCLINATION    = 54.9838
RA_OF_ASC_NODE = 344.8287
ARG_OF_PERICENTER = 328.1926
MEAN_ANOMALY   = 31.8237

EPHEMERIS_TYPE = 0
CLASSIFICATION_TYPE = U
NORAD_CAT_ID   = 68357
ELEMENT_SET_NO = 999
REV_AT_EPOCH   = 159
BSTAR          = .48805088E-4
MEAN_MOTION_DOT = .123E-5
MEAN_MOTION_DDOT = 0

CCSDS_OMM_VERS = 2.0
CREATION_DATE  = 
ORIGINATOR     = 

OBJECT_NAME    = CENTISPACE-1 OBJECT J
OBJECT_ID      = 2026-060J
CENTER_NAME    = EARTH
REF_FRAME      = TEME
TIME_SYSTEM    = UTC
MEAN_ELEMENT_THEORY = SGP/SGP4

EPOCH          = 2026-04-04T07:20:44.827296
MEAN_MOTION    = 14.75288053
ECCENTRICITY   = .00145147
INCLINATION    = 54.9834
RA_OF_ASC_NODE = 337.0781
ARG_OF_PERICENTER = 331.6144
MEAN_ANOMALY   = 28.4064

EPHEMERIS_TYPE = 0
CLASSIFICATION_TYPE = U
NORAD_CAT_ID   = 68358
ELEMENT_SET_NO = 999
REV_AT_EPOCH   = 187
BSTAR          = .50084602E-4
MEAN_MOTION_DOT = .132E-5
MEAN_MOTION_DDOT = 0

CCSDS_OMM_VERS = 2.0
CREATION_DATE  = 
ORIGINATOR     = 

OBJECT_NAME    = CENTISPACE-1 OBJECT K
OBJECT_ID      = 2026-060K
CENTER_NAME    = EARTH
REF_FRAME      = TEME
TIME_SYSTEM    = UTC
MEAN_ELEMENT_THEORY = SGP/SGP4

EPOCH          = 2026-04-04T00:49:14.888640
MEAN_MOTION    = 14.75504026
ECCENTRICITY   = .00156027
INCLINATION    = 54.9798
RA_OF_ASC_NODE = 338.1795
ARG_OF_PERICENTER = 332.5681
MEAN_ANOMALY   = 27.4493

EPHEMERIS_TYPE = 0
CLASSIFICATION_TYPE = U
NORAD_CAT_ID   = 68359
ELEMENT_SET_NO = 999
REV_AT_EPOCH   = 183
BSTAR          = .5335102E-4
MEAN_MOTION_DOT = .155E-5
MEAN_MOTION_DDOT = 0

CCSDS_OMM_VERS = 2.0
CREATION_DATE  = 
ORIGINATOR     = 

OBJECT_NAME    = RASSVET-3 1
OBJECT_ID      = 2026-061A
CENTER_NAME    = EARTH
REF_FRAME      = TEME
TIME_SYSTEM    = UTC
MEAN_ELEMENT_THEORY = SGP/SGP4

EPOCH          = 2026-04-04T05:53:46.268160
MEAN_MOTION    = 15.89876049
ECCENTRICITY   = .0024998
INCLINATION    = 82.2952
RA_OF_ASC_NODE = 95.6460
ARG_OF_PERICENTER = 32.1576
MEAN_ANOMALY   = 328.1213

EPHEMERIS_TYPE = 0
CLASSIFICATION_TYPE = U
NORAD_CAT_ID   = 68360
ELEMENT_SET_NO = 999
REV_AT_EPOCH   = 183
BSTAR          = .50065289E-3
MEAN_MOTION_DOT = .152397E-2
MEAN_MOTION_DDOT = .7041136E-5

CCSDS_OMM_VERS = 2.0
CREATION_DATE  = 
ORIGINATOR     = 

OBJECT_NAME    = RASSVET-3 2
OBJECT_ID      = 2026-061B
CENTER_NAME    = EARTH
REF_FRAME      = TEME
TIME_SYSTEM    = UTC
MEAN_ELEMENT_THEORY = SGP/SGP4

EPOCH          = 2026-04-04T05:56:40.847136
MEAN_MOTION    = 15.89076812
ECCENTRICITY   = .00263571
INCLINATION    = 82.2967
RA_OF_ASC_NODE = 95.6501
ARG_OF_PERICENTER = 31.6778
MEAN_ANOMALY   = 328.6072

EPHEMERIS_TYPE = 0
CLASSIFICATION_TYPE = U
NORAD_CAT_ID   = 68361
ELEMENT_SET_NO = 999
REV_AT_EPOCH   = 183
BSTAR          = .28504386E-3
MEAN_MOTION_DOT = .83743E-3
MEAN_MOTION_DDOT = .1290154E-5

CCSDS_OMM_VERS = 2.0
CREATION_DATE  = 
ORIGINATOR     = 

OBJECT_NAME    = RASSVET-3 3
OBJECT_ID      = 2026-061C
CENTER_NAME    = EARTH
REF_FRAME      = TEME
TIME_SYSTEM    = UTC
MEAN_ELEMENT_THEORY = SGP/SGP4

EPOCH          = 2026-04-04T05:56:27.444768
MEAN_MOTION    = 15.89080328
ECCENTRICITY   = .00261706
INCLINATION    = 82.2966
RA_OF_ASC_NODE = 95.6495
ARG_OF_PERICENTER = 31.5508
MEAN_ANOMALY   = 328.7325

EPHEMERIS_TYPE = 0
CLASSIFICATION_TYPE = U
NORAD_CAT_ID   = 68362
ELEMENT_SET_NO = 999
REV_AT_EPOCH   = 183
BSTAR          = .28069651E-3
MEAN_MOTION_DOT = .8245E-3
MEAN_MOTION_DDOT = .1216051E-5

CCSDS_OMM_VERS = 2.0
CREATION_DATE  = 
ORIGINATOR     = 

OBJECT_NAME    = RASSVET-3 4
OBJECT_ID      = 2026-061D
CENTER_NAME    = EARTH
REF_FRAME      = TEME
TIME_SYSTEM    = UTC
MEAN_ELEMENT_THEORY = SGP/SGP4

EPOCH          = 2026-04-04T05:56:14.244576
MEAN_MOTION    = 15.89096130
ECCENTRICITY   = .00262139
INCLINATION    = 82.2967
RA_OF_ASC_NODE = 95.6496
ARG_OF_PERICENTER = 31.4198
MEAN_ANOMALY   = 328.8633

EPHEMERIS_TYPE = 0
CLASSIFICATION_TYPE = U
NORAD_CAT_ID   = 68363
ELEMENT_SET_NO = 999
REV_AT_EPOCH   = 183
BSTAR          = .28138229E-3
MEAN_MOTION_DOT = .82725E-3
MEAN_MOTION_DDOT = .1232128E-5

CCSDS_OMM_VERS = 2.0
CREATION_DATE  = 
ORIGINATOR     = 

OBJECT_NAME    = RASSVET-3 5
OBJECT_ID      = 2026-061E
CENTER_NAME    = EARTH
REF_FRAME      = TEME
TIME_SYSTEM    = UTC
MEAN_ELEMENT_THEORY = SGP/SGP4

EPOCH          = 2026-04-04T05:56:02.800896
MEAN_MOTION    = 15.89117169
ECCENTRICITY   = .00261712
INCLINATION    = 82.2966
RA_OF_ASC_NODE = 95.6490
ARG_OF_PERICENTER = 31.4640
MEAN_ANOMALY   = 328.8190

EPHEMERIS_TYPE = 0
CLASSIFICATION_TYPE = U
NORAD_CAT_ID   = 68364
ELEMENT_SET_NO = 999
REV_AT_EPOCH   = 183
BSTAR          = .27939242E-3
MEAN_MOTION_DOT = .82221E-3
MEAN_MOTION_DDOT = .1203917E-5

CCSDS_OMM_VERS = 2.0
CREATION_DATE  = 
ORIGINATOR     = 

OBJECT_NAME    = RASSVET-3 6
OBJECT_ID      = 2026-061F
CENTER_NAME    = EARTH
REF_FRAME      = TEME
TIME_SYSTEM    = UTC
MEAN_ELEMENT_THEORY = SGP/SGP4

EPOCH          = 2026-04-04T05:55:30.190944
MEAN_MOTION    = 15.89228587
ECCENTRICITY   = .00260083
INCLINATION    = 82.2967
RA_OF_ASC_NODE = 95.6486
ARG_OF_PERICENTER = 31.6628
MEAN_ANOMALY   = 328.6201

EPHEMERIS_TYPE = 0
CLASSIFICATION_TYPE = U
NORAD_CAT_ID   = 68365
ELEMENT_SET_NO = 999
REV_AT_EPOCH   = 183
BSTAR          = .27834166E-3
MEAN_MOTION_DOT = .82343E-3
MEAN_MOTION_DDOT = .1213533E-5

